ORBCOMM FM37            
1 33064U 08031E   25353.94002950  .00000899  00000+0  14349-3 0  9994
2 33064  48.4383 180.0477 0004766  99.1883  48.1374 14.80625713941565
ORBCOMM FM40            
1 33065U 08031F   25353.68219873  .00001400  00000+0  19644-3 0  9992
2 33065  48.4405 162.0574 0005839 115.6955 346.1047 14.83134934941689
VESSELSAT 1             
1 37840U 11058C   25353.54550425  .00000329  00000+0  35129-4 0  9992
2 37840  19.9627  52.2409 0013832  65.7967 294.3882 14.11399968732523
ORBCOMM FM109           
1 40086U 14040A   25354.05705980  .00000276  00000+0  95135-4 0  9991
2 40086  47.0020 218.2381 0001252 121.3772 238.7236 14.58554345608190
ORBCOMM FM107           
1 40087U 14040B   25354.00746506  .00000349  00000+0  11052-3 0  9992
2 40087  47.0035 219.3581 0000801  30.2753 329.8178 14.58631213608262
ORBCOMM FM106           
1 40088U 14040C   25354.09298613  .00000690  00000+0  14499-3 0  9990
2 40088  47.0615  26.0432 0017014 214.1495 145.8303 14.70046753610829
ORBCOMM FM111           
1 40089U 14040D   25354.00739292  .00001395  00000+0  17437-3 0  9993
2 40089  47.0004 211.0217 0028471   2.2633 357.8389 14.87756375617886
ORBCOMM FM104           
1 40090U 14040E   25354.06395762  .00000331  00000+0  11054-3 0  9999
2 40090  47.0048 254.9509 0016650 333.1667  26.8355 14.57018196607722
